[{"OBJECT_NAME":"STARLINK-30510","OBJECT_ID":"2023-151T","EPOCH":"2026-03-08T19:08:18.718368","MEAN_MOTION":15.02539259,"ECCENTRICITY":0.00012768,"INCLINATION":43.006,"RA_OF_ASC_NODE":356.8477,"ARG_OF_PERICENTER":250.8138,"MEAN_ANOMALY":109.2566,"EPHEMERIS_TYPE":0,"CLASSIFICATION_TYPE":"U","NORAD_CAT_ID":57981,"ELEMENT_SET_NO":999,"REV_AT_EPOCH":13544,"BSTAR":2.1665047e-5,"MEAN_MOTION_DOT":8.9e-7,"MEAN_MOTION_DDOT":0},{"OBJECT_NAME":"OBJECT E","OBJECT_ID":"2025-292E","EPOCH":"2026-03-09T23:06:13.350528","MEAN_MOTION":15.05603019,"ECCENTRICITY":0.00142209,"INCLINATION":97.6388,"RA_OF_ASC_NODE":145.6972,"ARG_OF_PERICENTER":344.4497,"MEAN_ANOMALY":15.6291,"EPHEMERIS_TYPE":0,"CLASSIFICATION_TYPE":"U","NORAD_CAT_ID":66997,"ELEMENT_SET_NO":999,"REV_AT_EPOCH":1350,"BSTAR":0.00040225725,"MEAN_MOTION_DOT":5.752e-5,"MEAN_MOTION_DDOT":0}]
